[{"OBJECT_NAME":"STARLINK-6218","OBJECT_ID":"2023-099AS","EPOCH":"2026-01-02T15:36:40.907808","MEAN_MOTION":15.02536268,"ECCENTRICITY":0.0001394,"INCLINATION":43.0037,"RA_OF_ASC_NODE":234.6837,"ARG_OF_PERICENTER":264.217,"MEAN_ANOMALY":95.8514,"EPHEMERIS_TYPE":0,"CLASSIFICATION_TYPE":"U","NORAD_CAT_ID":57368,"ELEMENT_SET_NO":999,"REV_AT_EPOCH":13633,"BSTAR":0.00010090645,"MEAN_MOTION_DOT":1.16e-5,"MEAN_MOTION_DDOT":0},{"OBJECT_NAME":"STARLINK-6168","OBJECT_ID":"2023-099AT","EPOCH":"2026-01-02T07:50:49.661952","MEAN_MOTION":15.0253707,"ECCENTRICITY":0.00010639,"INCLINATION":43.0006,"RA_OF_ASC_NODE":236.5647,"ARG_OF_PERICENTER":263.1164,"MEAN_ANOMALY":96.9558,"EPHEMERIS_TYPE":0,"CLASSIFICATION_TYPE":"U","NORAD_CAT_ID":57369,"ELEMENT_SET_NO":999,"REV_AT_EPOCH":13628,"BSTAR":7.8598687e-5,"MEAN_MOTION_DOT":8.58e-6,"MEAN_MOTION_DDOT":0},{"OBJECT_NAME":"STARLINK-5353","OBJECT_ID":"2023-099AU","EPOCH":"2026-01-02T15:27:05.417280","MEAN_MOTION":15.02537098,"ECCENTRICITY":0.00010957,"INCLINATION":43.0033,"RA_OF_ASC_NODE":234.6332,"ARG_OF_PERICENTER":268.4856,"MEAN_ANOMALY":91.5861,"EPHEMERIS_TYPE":0,"CLASSIFICATION_TYPE":"U","NORAD_CAT_ID":57370,"ELEMENT_SET_NO":999,"REV_AT_EPOCH":13633,"BSTAR":6.2803243e-5,"MEAN_MOTION_DOT":6.45e-6,"MEAN_MOTION_DDOT":0},{"OBJECT_NAME":"STARLINK-6032","OBJECT_ID":"2023-099AV","EPOCH":"2026-01-02T15:46:16.267872","MEAN_MOTION":15.02553349,"ECCENTRICITY":0.00012387,"INCLINATION":43.0031,"RA_OF_ASC_NODE":234.7383,"ARG_OF_PERICENTER":268.9762,"MEAN_ANOMALY":91.0939,"EPHEMERIS_TYPE":0,"CLASSIFICATION_TYPE":"U","NORAD_CAT_ID":57371,"ELEMENT_SET_NO":999,"REV_AT_EPOCH":13633,"BSTAR":-0.0001997303,"MEAN_MOTION_DOT":-2.902e-5,"MEAN_MOTION_DDOT":0},{"OBJECT_NAME":"STARLINK-5975","OBJECT_ID":"2023-099AW","EPOCH":"2026-01-02T16:51:37.680480","MEAN_MOTION":15.02536993,"ECCENTRICITY":9.53e-5,"INCLINATION":43.003,"RA_OF_ASC_NODE":234.2062,"ARG_OF_PERICENTER":259.2242,"MEAN_ANOMALY":100.8493,"EPHEMERIS_TYPE":0,"CLASSIFICATION_TYPE":"U","NORAD_CAT_ID":57372,"ELEMENT_SET_NO":999,"REV_AT_EPOCH":13634,"BSTAR":2.6256e-5,"MEAN_MOTION_DOT":1.51e-6,"MEAN_MOTION_DDOT":0},{"OBJECT_NAME":"STARLINK-6370","OBJECT_ID":"2023-099AX","EPOCH":"2026-01-02T16:35:48.930720","MEAN_MOTION":15.02536917,"ECCENTRICITY":0.00013,"INCLINATION":43.0037,"RA_OF_ASC_NODE":234.9835,"ARG_OF_PERICENTER":266.5799,"MEAN_ANOMALY":93.4894,"EPHEMERIS_TYPE":0,"CLASSIFICATION_TYPE":"U","NORAD_CAT_ID":57373,"ELEMENT_SET_NO":999,"REV_AT_EPOCH":13633,"BSTAR":9.6817e-5,"MEAN_MOTION_DOT":1.104e-5,"MEAN_MOTION_DDOT":0},{"OBJECT_NAME":"STARLINK-6369","OBJECT_ID":"2023-099AY","EPOCH":"2026-01-02T20:40:13.208736","MEAN_MOTION":15.02534621,"ECCENTRICITY":0.0001241,"INCLINATION":43.0037,"RA_OF_ASC_NODE":220.6766,"ARG_OF_PERICENTER":268.6212,"MEAN_ANOMALY":91.4488,"EPHEMERIS_TYPE":0,"CLASSIFICATION_TYPE":"U","NORAD_CAT_ID":57374,"ELEMENT_SET_NO":999,"REV_AT_EPOCH":13651,"BSTAR":0.00010907,"MEAN_MOTION_DOT":1.27e-5,"MEAN_MOTION_DDOT":0},{"OBJECT_NAME":"STARLINK-6363","OBJECT_ID":"2023-099AZ","EPOCH":"2026-01-02T01:03:56.449440","MEAN_MOTION":15.02538017,"ECCENTRICITY":0.0001121,"INCLINATION":43.0028,"RA_OF_ASC_NODE":237.8763,"ARG_OF_PERICENTER":260.6307,"MEAN_ANOMALY":99.4409,"EPHEMERIS_TYPE":0,"CLASSIFICATION_TYPE":"U","NORAD_CAT_ID":57375,"ELEMENT_SET_NO":999,"REV_AT_EPOCH":13624,"BSTAR":0.0001459113,"MEAN_MOTION_DOT":1.768e-5,"MEAN_MOTION_DDOT":0},{"OBJECT_NAME":"STARLINK-6367","OBJECT_ID":"2023-099BA","EPOCH":"2026-01-02T15:11:04.835040","MEAN_MOTION":15.02550484,"ECCENTRICITY":4.827e-5,"INCLINATION":42.9997,"RA_OF_ASC_NODE":234.5539,"ARG_OF_PERICENTER":276.8738,"MEAN_ANOMALY":83.205,"EPHEMERIS_TYPE":0,"CLASSIFICATION_TYPE":"U","NORAD_CAT_ID":57376,"ELEMENT_SET_NO":999,"REV_AT_EPOCH":13633,"BSTAR":-0.000134158,"MEAN_MOTION_DOT":-2.016e-5,"MEAN_MOTION_DDOT":0},{"OBJECT_NAME":"STARLINK-6358","OBJECT_ID":"2023-099BB","EPOCH":"2026-01-02T16:53:13.337376","MEAN_MOTION":15.02539962,"ECCENTRICITY":0.0001231,"INCLINATION":43.0038,"RA_OF_ASC_NODE":234.2268,"ARG_OF_PERICENTER":262.444,"MEAN_ANOMALY":97.6263,"EPHEMERIS_TYPE":0,"CLASSIFICATION_TYPE":"U","NORAD_CAT_ID":57377,"ELEMENT_SET_NO":999,"REV_AT_EPOCH":13634,"BSTAR":8.8336e-5,"MEAN_MOTION_DOT":9.9e-6,"MEAN_MOTION_DDOT":0},{"OBJECT_NAME":"STARLINK-6364","OBJECT_ID":"2023-099BC","EPOCH":"2026-01-02T20:34:11.212608","MEAN_MOTION":15.02537149,"ECCENTRICITY":0.0001397,"INCLINATION":43.0036,"RA_OF_ASC_NODE":207.644,"ARG_OF_PERICENTER":273.8215,"MEAN_ANOMALY":86.2467,"EPHEMERIS_TYPE":0,"CLASSIFICATION_TYPE":"U","NORAD_CAT_ID":57378,"ELEMENT_SET_NO":999,"REV_AT_EPOCH":13740,"BSTAR":8.8603e-5,"MEAN_MOTION_DOT":9.93e-6,"MEAN_MOTION_DDOT":0},{"OBJECT_NAME":"STARLINK-6361","OBJECT_ID":"2023-099BD","EPOCH":"2026-01-02T08:49:43.679424","MEAN_MOTION":15.02577825,"ECCENTRICITY":9.216e-5,"INCLINATION":43.0025,"RA_OF_ASC_NODE":236.0069,"ARG_OF_PERICENTER":288.6383,"MEAN_ANOMALY":71.436,"EPHEMERIS_TYPE":0,"CLASSIFICATION_TYPE":"U","NORAD_CAT_ID":57379,"ELEMENT_SET_NO":999,"REV_AT_EPOCH":13629,"BSTAR":0.00040651388,"MEAN_MOTION_DOT":5.298e-5,"MEAN_MOTION_DDOT":0},{"OBJECT_NAME":"STARLINK-6366","OBJECT_ID":"2023-099BE","EPOCH":"2026-01-02T20:32:35.231712","MEAN_MOTION":15.02537763,"ECCENTRICITY":0.0001286,"INCLINATION":43.0017,"RA_OF_ASC_NODE":207.6271,"ARG_OF_PERICENTER":271.8782,"MEAN_ANOMALY":88.1913,"EPHEMERIS_TYPE":0,"CLASSIFICATION_TYPE":"U","NORAD_CAT_ID":57380,"ELEMENT_SET_NO":999,"REV_AT_EPOCH":13739,"BSTAR":3.9217e-5,"MEAN_MOTION_DOT":3.26e-6,"MEAN_MOTION_DDOT":0},{"OBJECT_NAME":"STARLINK-6371","OBJECT_ID":"2023-099BF","EPOCH":"2026-01-02T16:28:11.199936","MEAN_MOTION":15.02537593,"ECCENTRICITY":0.0001174,"INCLINATION":43.002,"RA_OF_ASC_NODE":221.9285,"ARG_OF_PERICENTER":267.4107,"MEAN_ANOMALY":92.6601,"EPHEMERIS_TYPE":0,"CLASSIFICATION_TYPE":"U","NORAD_CAT_ID":57381,"ELEMENT_SET_NO":999,"REV_AT_EPOCH":13722,"BSTAR":1.6612e-5,"MEAN_MOTION_DOT":2.1e-7,"MEAN_MOTION_DDOT":0},{"OBJECT_NAME":"STARLINK-30240","OBJECT_ID":"2023-102A","EPOCH":"2026-01-02T09:53:19.574304","MEAN_MOTION":15.02540732,"ECCENTRICITY":0.00013237,"INCLINATION":43.0023,"RA_OF_ASC_NODE":249.2571,"ARG_OF_PERICENTER":270.2966,"MEAN_ANOMALY":89.7725,"EPHEMERIS_TYPE":0,"CLASSIFICATION_TYPE":"U","NORAD_CAT_ID":57404,"ELEMENT_SET_NO":999,"REV_AT_EPOCH":13626,"BSTAR":4.5201643e-5,"MEAN_MOTION_DOT":4.07e-6,"MEAN_MOTION_DDOT":0},{"OBJECT_NAME":"STARLINK-30192","OBJECT_ID":"2023-102B","EPOCH":"2026-01-02T20:00:01.999872","MEAN_MOTION":15.8422755,"ECCENTRICITY":0.0007732,"INCLINATION":42.9944,"RA_OF_ASC_NODE":216.9858,"ARG_OF_PERICENTER":263.1071,"MEAN_ANOMALY":95.9909,"EPHEMERIS_TYPE":0,"CLASSIFICATION_TYPE":"U","NORAD_CAT_ID":57405,"ELEMENT_SET_NO":999,"REV_AT_EPOCH":600,"BSTAR":0.0013429,"MEAN_MOTION_DOT":0.00325892,"MEAN_MOTION_DDOT":0}]
