STARLINK-6218           
1 57368U 23099AS  26002.65047347  .00001160  00000+0  10091-3 0  9999
2 57368  43.0037 234.6837 0001394 264.2170  95.8514 15.02536268136336
STARLINK-6168           
1 57369U 23099AT  26002.32696368  .00000858  00000+0  78599-4 0  9998
2 57369  43.0006 236.5647 0001063 263.1164  96.9558 15.02537070136283
STARLINK-5353           
1 57370U 23099AU  26002.64381270  .00000645  00000+0  62803-4 0  9993
2 57370  43.0033 234.6332 0001095 268.4856  91.5861 15.02537098136330
STARLINK-6032           
1 57371U 23099AV  26002.65713273 -.00002902  00000+0 -19973-3 0  9996
2 57371  43.0031 234.7383 0001238 268.9762  91.0939 15.02553349136334
STARLINK-5975           
1 57372U 23099AW  26002.70251945  .00000151  00000+0  26256-4 0  9991
2 57372  43.0030 234.2062 0000953 259.2242 100.8493 15.02536993136343
STARLINK-6370           
1 57373U 23099AX  26002.69153855  .00001104  00000+0  96817-4 0  9990
2 57373  43.0037 234.9835 0001300 266.5799  93.4894 15.02536917136338
STARLINK-6369           
1 57374U 23099AY  26002.86126399  .00001270  00000+0  10907-3 0  9992
2 57374  43.0037 220.6766 0001241 268.6212  91.4488 15.02534621136518
STARLINK-6363           
1 57375U 23099AZ  26002.04440335  .00001768  00000+0  14591-3 0  9997
2 57375  43.0028 237.8763 0001121 260.6307  99.4409 15.02538017136244
STARLINK-6367           
1 57376U 23099BA  26002.63269485 -.00002016  00000+0 -13416-3 0  9992
2 57376  42.9997 234.5539 0000482 276.8738  83.2050 15.02550484136334
STARLINK-6358           
1 57377U 23099BB  26002.70362659  .00000990  00000+0  88336-4 0  9999
2 57377  43.0038 234.2268 0001231 262.4440  97.6263 15.02539962136347
STARLINK-6364           
1 57378U 23099BC  26002.85707422  .00000993  00000+0  88603-4 0  9997
2 57378  43.0036 207.6440 0001397 273.8215  86.2467 15.02537149137404
STARLINK-6361           
1 57379U 23099BD  26002.36786666  .00005298  00000+0  40651-3 0  9994
2 57379  43.0025 236.0069 0000921 288.6383  71.4360 15.02577825136297
STARLINK-6366           
1 57380U 23099BE  26002.85596333  .00000326  00000+0  39217-4 0  9994
2 57380  43.0017 207.6271 0001286 271.8782  88.1913 15.02537763137399
STARLINK-6371           
1 57381U 23099BF  26002.68624074  .00000021  00000+0  16612-4 0  9996
2 57381  43.0020 221.9285 0001174 267.4107  92.6601 15.02537593137223
STARLINK-30240          
1 57404U 23102A   26002.41203211  .00000407  00000+0  45202-4 0  9999
2 57404  43.0023 249.2571 0001323 270.2966  89.7725 15.02540732136260
STARLINK-30192          
1 57405U 23102B   26002.83335648  .00325892  00000+0  13429-2 0  9998
2 57405  42.9944 216.9858 0007732 263.1071  95.9909 15.84227550  6009
